{"type":"FeatureCollection","features":[{"type":"Feature","properties":{"name":"Vatican City","adm0name":"Vatican (Holy See)","latitude":41.9000122264,"longitude":12.4478083889,"pop_max":832,"megacity":0,"worldcity":1,"adm0cap":1},"bbox":[12.453387,41.903282,12.453387,41.903282]},{"type":"Feature","properties":{"name":"San Marino","adm0name":"San Marino","latitude":43.9171500845,"longitude":12.4666702867,"pop_max":29579,"megacity":0,"worldcity":0,"adm0cap":1},"bbox":[12.44177,43.936096,12.44177,43.936096]},{"type":"Feature","properties":{"name":"Vaduz","adm0name":"Liechtenstein","latitude":47.1337237743,"longitude":9.51666947291,"pop_max":36281,"megacity":0,"worldcity":0,"adm0cap":1},"bbox":[9.516669,47.133724,9.516669,47.133724]},{"type":"Feature","properties":{"name":"Lobamba","adm0name":"Swaziland","latitude":-26.4666674614,"longitude":31.1999971097,"pop_max":9782,"megacity":0,"worldcity":0,"adm0cap":0},"bbox":[31.199997,-26.466667,31.199997,-26.466667]},{"type":"Feature","properties":{"name":"Luxembourg","adm0name":"Luxembourg","latitude":49.6116603791,"longitude":6.13000280623,"pop_max":107260,"megacity":0,"worldcity":0,"adm0cap":1},"bbox":[6.130003,49.61166,6.130003,49.61166]},{"type":"Feature","properties":{"name":"Palikir","adm0name":"Federated States of Micronesia","latitude":6.91664369601,"longitude":158.149974324,"pop_max":4645,"megacity":0,"worldcity":0,"adm0cap":1},"bbox":[158.149974,6.916644,158.149974,6.916644]},{"type":"Feature","properties":{"name":"Majuro","adm0name":"Marshall Islands","latitude":7.10300431122,"longitude":171.380000176,"pop_max":25400,"megacity":0,"worldcity":0,"adm0cap":1},"bbox":[171.38,7.103004,171.38,7.103004]},{"type":"Feature","properties":{"name":"Funafuti","adm0name":"Tuvalu","latitude":-8.51665199904,"longitude":179.216647094,"pop_max":4749,"megacity":0,"worldcity":0,"adm0cap":1},"bbox":[179.216647,-8.516652,179.216647,-8.516652]},{"type":"Feature","properties":{"name":"Melekeok","adm0name":"Palau","latitude":7.48739617298,"longitude":134.626548467,"pop_max":7026,"megacity":0,"worldcity":0,"adm0cap":1},"bbox":[134.626548,7.487396,134.626548,7.487396]},{"type":"Feature","properties":{"name":"Bir Lehlou","adm0name":"Western Sahara","latitude":26.119166686,"longitude":-9.65252221825,"pop_max":500,"megacity":0,"worldcity":0,"adm0cap":0},"bbox":[-9.652522,26.119167,-9.652522,26.119167]},{"type":"Feature","properties":{"name":"Monaco","adm0name":"Monaco","latitude":43.7396456879,"longitude":7.40691317347,"pop_max":36371,"megacity":0,"worldcity":0,"adm0cap":1},"bbox":[7.406913,43.739646,7.406913,43.739646]},{"type":"Feature","properties":{"name":"Tarawa","adm0name":"Kiribati","latitude":1.33818750562,"longitude":173.017570829,"pop_max":28802,"megacity":0,"worldcity":0,"adm0cap":1},"bbox":[173.017571,1.338188,173.017571,1.338188]},{"type":"Feature","properties":{"name":"Moroni","adm0name":"Comoros","latitude":-11.7041576957,"longitude":43.2402440987,"pop_max":128698,"megacity":0,"worldcity":0,"adm0cap":1},"bbox":[43.240244,-11.704158,43.240244,-11.704158]},{"type":"Feature","properties":{"name":"Andorra","adm0name":"Andorra","latitude":42.5000014435,"longitude":1.51648596051,"pop_max":53998,"megacity":0,"worldcity":0,"adm0cap":1},"bbox":[1.516486,42.500001,1.516486,42.500001]},{"type":"Feature","properties":{"name":"Port-of-Spain","adm0name":"Trinidad and Tobago","latitude":10.6519970896,"longitude":-61.5170308854,"pop_max":294934,"megacity":0,"worldcity":0,"adm0cap":1},"bbox":[-61.517031,10.651997,-61.517031,10.651997]},{"type":"Feature","properties":{"name":"Kigali","adm0name":"Rwanda","latitude":-1.95359006868,"longitude":30.0605317777,"pop_max":860000,"megacity":1,"worldcity":0,"adm0cap":1},"bbox":[30.058586,-1.951644,30.058586,-1.951644]},{"type":"Feature","properties":{"name":"Mbabane","adm0name":"Swaziland","latitude":-26.3166507784,"longitude":31.1333345121,"pop_max":90138,"megacity":0,"worldcity":0,"adm0cap":1},"bbox":[31.133335,-26.316651,31.133335,-26.316651]},{"type":"Feature","properties":{"name":"Juba","adm0name":"South Sudan","latitude":4.82997519828,"longitude":31.5800255928,"pop_max":111975,"megacity":0,"worldcity":0,"adm0cap":0},"bbox":[31.580026,4.829975,31.580026,4.829975]},{"type":"Feature","properties":{"name":"The Hague","adm0name":"Netherlands","latitude":52.080036844,"longitude":4.26996130231,"pop_max":1406000,"megacity":0,"worldcity":0,"adm0cap":0},"bbox":[4.269961,52.080037,4.269961,52.080037]},{"type":"Feature","properties":{"name":"Ljubljana","adm0name":"Slovenia","latitude":46.0552883088,"longitude":14.5149690335,"pop_max":314807,"megacity":0,"worldcity":0,"adm0cap":1},"bbox":[14.514969,46.055288,14.514969,46.055288]},{"type":"Feature","properties":{"name":"Bratislava","adm0name":"Slovakia","latitude":48.15001833,"longitude":17.1169807522,"pop_max":423737,"megacity":0,"worldcity":0,"adm0cap":1},"bbox":[17.116981,48.150018,17.116981,48.150018]},{"type":"Feature","properties":{"name":"Doha","adm0name":"Qatar","latitude":25.2865560089,"longitude":51.5329678943,"pop_max":1450000,"megacity":0,"worldcity":0,"adm0cap":1},"bbox":[51.532968,25.286556,51.532968,25.286556]},{"type":"Feature","properties":{"name":"Podgorica","adm0name":"Montenegro","latitude":42.4659725129,"longitude":19.2663069241,"pop_max":145850,"megacity":0,"worldcity":0,"adm0cap":1},"bbox":[19.266307,42.465973,19.266307,42.465973]},{"type":"Feature","properties":{"name":"Sri Jawewardenepura Kotte","adm0name":"Sri Lanka","latitude":6.90000388481,"longitude":79.9499930409,"pop_max":115826,"megacity":0,"worldcity":0,"adm0cap":0},"bbox":[79.949993,6.900004,79.949993,6.900004]},{"type":"Feature","properties":{"name":"Baguio City","adm0name":"Philippines","latitude":16.4299906606,"longitude":120.569942585,"pop_max":447824,"megacity":0,"worldcity":0,"adm0cap":0},"bbox":[120.569943,16.429991,120.569943,16.429991]},{"type":"Feature","properties":{"name":"Dodoma","adm0name":"Tanzania","latitude":-6.18330605177,"longitude":35.7500036201,"pop_max":218269,"megacity":0,"worldcity":0,"adm0cap":0},"bbox":[35.750004,-6.183306,35.750004,-6.183306]},{"type":"Feature","properties":{"name":"Bern","adm0name":"Switzerland","latitude":46.9166827587,"longitude":7.46697546248,"pop_max":275329,"megacity":0,"worldcity":0,"adm0cap":1},"bbox":[7.466975,46.916683,7.466975,46.916683]},{"type":"Feature","properties":{"name":"Laayoune","adm0name":"Morocco","latitude":27.1499823191,"longitude":-13.2000059422,"pop_max":188084,"megacity":0,"worldcity":0,"adm0cap":0},"bbox":[-13.200006,27.149982,-13.200006,27.149982]},{"type":"Feature","properties":{"name":"Pristina","adm0name":"Kosovo","latitude":42.6667096141,"longitude":21.1659842516,"pop_max":465186,"megacity":0,"worldcity":0,"adm0cap":1},"bbox":[21.165984,42.66671,21.165984,42.66671]},{"type":"Feature","properties":{"name":"Roseau","adm0name":"Dominica","latitude":15.3010156443,"longitude":-61.3870129818,"pop_max":23336,"megacity":0,"worldcity":0,"adm0cap":1},"bbox":[-61.387013,15.301016,-61.387013,15.301016]},{"type":"Feature","properties":{"name":"Djibouti","adm0name":"Djibouti","latitude":11.5950144643,"longitude":43.1480016671,"pop_max":923000,"megacity":0,"worldcity":0,"adm0cap":1},"bbox":[43.148002,11.595014,43.148002,11.595014]},{"type":"Feature","properties":{"name":"Putrajaya","adm0name":"Malaysia","latitude":2.91401979462,"longitude":101.70194698,"pop_max":67964,"megacity":0,"worldcity":0,"adm0cap":0},"bbox":[101.701947,2.91402,101.701947,2.91402]},{"type":"Feature","properties":{"name":"Kyoto","adm0name":"Japan","latitude":35.0299922882,"longitude":135.749997924,"pop_max":1805000,"megacity":1,"worldcity":0,"adm0cap":0},"bbox":[135.748052,35.031938,135.748052,35.031938]},{"type":"Feature","properties":{"name":"Banjul","adm0name":"The Gambia","latitude":13.4538764603,"longitude":-16.5917014892,"pop_max":43094,"megacity":0,"worldcity":0,"adm0cap":1},"bbox":[-16.591701,13.453876,-16.591701,13.453876]},{"type":"Feature","properties":{"name":"Skopje","adm0name":"Macedonia","latitude":42.0000061229,"longitude":21.4334614651,"pop_max":494087,"megacity":0,"worldcity":0,"adm0cap":1},"bbox":[21.433461,42.000006,21.433461,42.000006]},{"type":"Feature","properties":{"name":"Bridgetown","adm0name":"Barbados","latitude":13.1020025828,"longitude":-59.6165267351,"pop_max":191152,"megacity":0,"worldcity":0,"adm0cap":1},"bbox":[-59.616527,13.102003,-59.616527,13.102003]},{"type":"Feature","properties":{"name":"Porto-Novo","adm0name":"Benin","latitude":6.48331097302,"longitude":2.61662552757,"pop_max":300000,"megacity":0,"worldcity":0,"adm0cap":0},"bbox":[2.616626,6.483311,2.616626,6.483311]},{"type":"Feature","properties":{"name":"Bujumbura","adm0name":"Burundi","latitude":-3.37608722037,"longitude":29.3600060615,"pop_max":331700,"megacity":0,"worldcity":0,"adm0cap":1},"bbox":[29.360006,-3.376087,29.360006,-3.376087]},{"type":"Feature","properties":{"name":"Kingstown","adm0name":"Saint Vincent and the Grenadines","latitude":13.1482788279,"longitude":-61.2120624203,"pop_max":49485,"megacity":0,"worldcity":0,"adm0cap":1},"bbox":[-61.212062,13.148279,-61.212062,13.148279]},{"type":"Feature","properties":{"name":"Castries","adm0name":"Saint Lucia","latitude":14.0019734893,"longitude":-61.0000081804,"pop_max":37963,"megacity":0,"worldcity":0,"adm0cap":1},"bbox":[-61.000008,14.001973,-61.000008,14.001973]},{"type":"Feature","properties":{"name":"Basseterre","adm0name":"Saint Kitts and Nevis","latitude":17.3020304555,"longitude":-62.7170093197,"pop_max":21887,"megacity":0,"worldcity":0,"adm0cap":1},"bbox":[-62.717009,17.30203,-62.717009,17.30203]},{"type":"Feature","properties":{"name":"Port Louis","adm0name":"Mauritius","latitude":-20.1666385714,"longitude":57.4999938546,"pop_max":595491,"megacity":0,"worldcity":0,"adm0cap":1},"bbox":[57.499994,-20.166639,57.499994,-20.166639]},{"type":"Feature","properties":{"name":"Saint George's","adm0name":"Grenada","latitude":12.0526334017,"longitude":-61.7416432261,"pop_max":33734,"megacity":0,"worldcity":0,"adm0cap":1},"bbox":[-61.741643,12.052633,-61.741643,12.052633]},{"type":"Feature","properties":{"name":"Manama","adm0name":"Bahrain","latitude":26.2361362905,"longitude":50.5830517159,"pop_max":563920,"megacity":0,"worldcity":0,"adm0cap":1},"bbox":[50.583052,26.236136,50.583052,26.236136]},{"type":"Feature","properties":{"name":"Saint John's","adm0name":"Antigua and Barbuda","latitude":17.1180365183,"longitude":-61.8500338151,"pop_max":35499,"megacity":0,"worldcity":0,"adm0cap":1},"bbox":[-61.850034,17.118037,-61.850034,17.118037]},{"type":"Feature","properties":{"name":"Montevideo","adm0name":"Uruguay","latitude":-34.8580415662,"longitude":-56.1710522884,"pop_max":1513000,"megacity":1,"worldcity":0,"adm0cap":1},"bbox":[-56.172998,-34.856096,-56.172998,-34.856096]},{"type":"Feature","properties":{"name":"Lom\u00e9","adm0name":"Togo","latitude":6.13193707166,"longitude":1.22275711936,"pop_max":1452000,"megacity":1,"worldcity":0,"adm0cap":1},"bbox":[1.220811,6.133883,1.220811,6.133883]},{"type":"Feature","properties":{"name":"Tunis","adm0name":"Tunisia","latitude":36.8027781362,"longitude":10.1796780992,"pop_max":2412500,"megacity":0,"worldcity":0,"adm0cap":1},"bbox":[10.179678,36.802778,10.179678,36.802778]},{"type":"Feature","properties":{"name":"Abu Dhabi","adm0name":"United Arab Emirates","latitude":24.4666835724,"longitude":54.3665933826,"pop_max":603492,"megacity":0,"worldcity":0,"adm0cap":1},"bbox":[54.366593,24.466684,54.366593,24.466684]},{"type":"Feature","properties":{"name":"Ashgabat","adm0name":"Turkmenistan","latitude":37.9499949331,"longitude":58.3832991118,"pop_max":727700,"megacity":0,"worldcity":0,"adm0cap":1},"bbox":[58.383299,37.949995,58.383299,37.949995]},{"type":"Feature","properties":{"name":"Lusaka","adm0name":"Zambia","latitude":-15.4166442679,"longitude":28.2833275947,"pop_max":1328000,"megacity":1,"worldcity":0,"adm0cap":1},"bbox":[28.281382,-15.414698,28.281382,-15.414698]},{"type":"Feature","properties":{"name":"Harare","adm0name":"Zimbabwe","latitude":-17.8177896944,"longitude":31.0447094307,"pop_max":1572000,"megacity":1,"worldcity":0,"adm0cap":1},"bbox":[31.042764,-17.815844,31.042764,-17.815844]},{"type":"Feature","properties":{"name":"Dili","adm0name":"East Timor","latitude":-8.55938840855,"longitude":125.579455932,"pop_max":234331,"megacity":0,"worldcity":0,"adm0cap":1},"bbox":[125.579456,-8.559388,125.579456,-8.559388]},{"type":"Feature","properties":{"name":"Port Vila","adm0name":"Vanuatu","latitude":-17.733350404,"longitude":168.316640584,"pop_max":44040,"megacity":0,"worldcity":0,"adm0cap":1},"bbox":[168.316641,-17.73335,168.316641,-17.73335]},{"type":"Feature","properties":{"name":"Tegucigalpa","adm0name":"Honduras","latitude":14.1020449005,"longitude":-87.2175293393,"pop_max":946000,"megacity":1,"worldcity":0,"adm0cap":1},"bbox":[-87.219475,14.103991,-87.219475,14.103991]},{"type":"Feature","properties":{"name":"Georgetown","adm0name":"Guyana","latitude":6.80197369275,"longitude":-58.1670286475,"pop_max":264350,"megacity":0,"worldcity":0,"adm0cap":1},"bbox":[-58.167029,6.801974,-58.167029,6.801974]},{"type":"Feature","properties":{"name":"Reykjav\u00edk","adm0name":"Iceland","latitude":64.1500236197,"longitude":-21.9500144872,"pop_max":166212,"megacity":0,"worldcity":0,"adm0cap":1},"bbox":[-21.950014,64.150024,-21.950014,64.150024]},{"type":"Feature","properties":{"name":"Port-au-Prince","adm0name":"Haiti","latitude":18.5410245961,"longitude":-72.3360345883,"pop_max":1998000,"megacity":1,"worldcity":0,"adm0cap":1},"bbox":[-72.33798,18.54297,-72.33798,18.54297]},{"type":"Feature","properties":{"name":"Kampala","adm0name":"Uganda","latitude":0.31665895477,"longitude":32.5833235257,"pop_max":1420000,"megacity":1,"worldcity":0,"adm0cap":1},"bbox":[32.581378,0.318605,32.581378,0.318605]},{"type":"Feature","properties":{"name":"Paramaribo","adm0name":"Suriname","latitude":5.83503012992,"longitude":-55.1670308854,"pop_max":254169,"megacity":0,"worldcity":0,"adm0cap":1},"bbox":[-55.167031,5.83503,-55.167031,5.83503]},{"type":"Feature","properties":{"name":"Niamey","adm0name":"Niger","latitude":13.5167059519,"longitude":2.11665604514,"pop_max":915000,"megacity":1,"worldcity":0,"adm0cap":1},"bbox":[2.11471,13.518652,2.11471,13.518652]},{"type":"Feature","properties":{"name":"Dushanbe","adm0name":"Tajikistan","latitude":38.5600352163,"longitude":68.7738793527,"pop_max":1086244,"megacity":0,"worldcity":0,"adm0cap":1},"bbox":[68.773879,38.560035,68.773879,38.560035]},{"type":"Feature","properties":{"name":"Asunci\u00f3n","adm0name":"Paraguay","latitude":-25.2964029757,"longitude":-57.6415051693,"pop_max":1870000,"megacity":1,"worldcity":0,"adm0cap":1},"bbox":[-57.643451,-25.294457,-57.643451,-25.294457]},{"type":"Feature","properties":{"name":"Managua","adm0name":"Nicaragua","latitude":12.1530165801,"longitude":-86.2684916603,"pop_max":920000,"megacity":1,"worldcity":0,"adm0cap":1},"bbox":[-86.270438,12.154962,-86.270438,12.154962]},{"type":"Feature","properties":{"name":"Freetown","adm0name":"Sierra Leone","latitude":8.47001141249,"longitude":-13.2342157404,"pop_max":827000,"megacity":1,"worldcity":0,"adm0cap":1},"bbox":[-13.236162,8.471957,-13.236162,8.471957]},{"type":"Feature","properties":{"name":"Islamabad","adm0name":"Pakistan","latitude":33.6999959503,"longitude":73.1666344797,"pop_max":780000,"megacity":1,"worldcity":0,"adm0cap":1},"bbox":[73.164689,33.701942,73.164689,33.701942]},{"type":"Feature","properties":{"name":"Kathmandu","adm0name":"Nepal","latitude":27.7166919139,"longitude":85.3166422108,"pop_max":895000,"megacity":1,"worldcity":0,"adm0cap":1},"bbox":[85.314696,27.718638,85.314696,27.718638]},{"type":"Feature","properties":{"name":"Bloemfontein","adm0name":"South Africa","latitude":-29.1199938774,"longitude":26.2299128812,"pop_max":463064,"megacity":0,"worldcity":0,"adm0cap":1},"bbox":[26.229913,-29.119994,26.229913,-29.119994]},{"type":"Feature","properties":{"name":"Pretoria","adm0name":"South Africa","latitude":-25.7069205538,"longitude":28.2294290758,"pop_max":1338000,"megacity":1,"worldcity":0,"adm0cap":1},"bbox":[28.227483,-25.704975,28.227483,-25.704975]},{"type":"Feature","properties":{"name":"Port Moresby","adm0name":"Papua New Guinea","latitude":-9.46470782587,"longitude":147.192503621,"pop_max":283733,"megacity":0,"worldcity":0,"adm0cap":1},"bbox":[147.192504,-9.464708,147.192504,-9.464708]},{"type":"Feature","properties":{"name":"Honiara","adm0name":"Solomon Islands","latitude":-9.43799429509,"longitude":159.949765734,"pop_max":76328,"megacity":0,"worldcity":0,"adm0cap":1},"bbox":[159.949766,-9.437994,159.949766,-9.437994]},{"type":"Feature","properties":{"name":"Panama City","adm0name":"Panama","latitude":8.96801719048,"longitude":-79.5330371518,"pop_max":1281000,"megacity":1,"worldcity":0,"adm0cap":1},"bbox":[-79.534983,8.969963,-79.534983,8.969963]},{"type":"Feature","properties":{"name":"Rabat","adm0name":"Morocco","latitude":34.0252990916,"longitude":-6.83613082013,"pop_max":1705000,"megacity":1,"worldcity":0,"adm0cap":1},"bbox":[-6.836408,34.025307,-6.836408,34.025307]},{"type":"Feature","properties":{"name":"Chi\u0219in\u0103u","adm0name":"Moldova","latitude":47.0050236197,"longitude":28.8577111397,"pop_max":688134,"megacity":0,"worldcity":0,"adm0cap":1},"bbox":[28.857711,47.005024,28.857711,47.005024]},{"type":"Feature","properties":{"name":"Maputo","adm0name":"Mozambique","latitude":-25.9552774874,"longitude":32.5891629626,"pop_max":1446000,"megacity":1,"worldcity":0,"adm0cap":1},"bbox":[32.587217,-25.953332,32.587217,-25.953332]},{"type":"Feature","properties":{"name":"Mogadishu","adm0name":"Somalia","latitude":2.06668133433,"longitude":45.3666776111,"pop_max":1100000,"megacity":1,"worldcity":0,"adm0cap":1},"bbox":[45.364732,2.068627,45.364732,2.068627]},{"type":"Feature","properties":{"name":"Muscat","adm0name":"Oman","latitude":23.6133248077,"longitude":58.5933121326,"pop_max":734697,"megacity":0,"worldcity":0,"adm0cap":1},"bbox":[58.593312,23.613325,58.593312,23.613325]},{"type":"Feature","properties":{"name":"Colombo","adm0name":"Sri Lanka","latitude":6.93196575818,"longitude":79.8577506093,"pop_max":217000,"megacity":0,"worldcity":0,"adm0cap":1},"bbox":[79.857751,6.931966,79.857751,6.931966]},{"type":"Feature","properties":{"name":"Ulaanbaatar","adm0name":"Mongolia","latitude":47.9166733999,"longitude":106.916615762,"pop_max":885000,"megacity":1,"worldcity":0,"adm0cap":1},"bbox":[106.91467,47.918619,106.91467,47.918619]},{"type":"Feature","properties":{"name":"Windhoek","adm0name":"Namibia","latitude":-22.5700060844,"longitude":17.0835461005,"pop_max":268132,"megacity":0,"worldcity":0,"adm0cap":1},"bbox":[17.083546,-22.570006,17.083546,-22.570006]},{"type":"Feature","properties":{"name":"Abuja","adm0name":"Nigeria","latitude":9.08333314914,"longitude":7.53332800155,"pop_max":1576000,"megacity":1,"worldcity":0,"adm0cap":1},"bbox":[7.531382,9.085279,7.531382,9.085279]},{"type":"Feature","properties":{"name":"Bissau","adm0name":"Guinea Bissau","latitude":11.865023823,"longitude":-15.5983608413,"pop_max":403339,"megacity":0,"worldcity":0,"adm0cap":1},"bbox":[-15.598361,11.865024,-15.598361,11.865024]},{"type":"Feature","properties":{"name":"Amman","adm0name":"Jordan","latitude":31.9500252472,"longitude":35.9332999255,"pop_max":1060000,"megacity":1,"worldcity":0,"adm0cap":1},"bbox":[35.931354,31.951971,35.931354,31.951971]},{"type":"Feature","properties":{"name":"Vilnius","adm0name":"Lithuania","latitude":54.6833663118,"longitude":25.3166352933,"pop_max":542366,"megacity":0,"worldcity":0,"adm0cap":1},"bbox":[25.316635,54.683366,25.316635,54.683366]},{"type":"Feature","properties":{"name":"Riga","adm0name":"Latvia","latitude":56.9500238232,"longitude":24.0999653714,"pop_max":742572,"megacity":0,"worldcity":0,"adm0cap":1},"bbox":[24.099965,56.950024,24.099965,56.950024]},{"type":"Feature","properties":{"name":"Bishkek","adm0name":"Kyrgyzstan","latitude":42.8730794465,"longitude":74.5852042225,"pop_max":837000,"megacity":1,"worldcity":0,"adm0cap":1},"bbox":[74.583258,42.875025,74.583258,42.875025]},{"type":"Feature","properties":{"name":"Maseru","adm0name":"Lesotho","latitude":-29.3166743787,"longitude":27.48327307,"pop_max":361324,"megacity":0,"worldcity":0,"adm0cap":1},"bbox":[27.483273,-29.316674,27.483273,-29.316674]},{"type":"Feature","properties":{"name":"Antananarivo","adm0name":"Madagascar","latitude":-18.9166373506,"longitude":47.5166239001,"pop_max":1697000,"megacity":1,"worldcity":0,"adm0cap":1},"bbox":[47.514678,-18.914691,47.514678,-18.914691]},{"type":"Feature","properties":{"name":"Quito","adm0name":"Ecuador","latitude":-0.21498818065,"longitude":-78.5000511085,"pop_max":1701000,"megacity":1,"worldcity":0,"adm0cap":1},"bbox":[-78.501997,-0.213042,-78.501997,-0.213042]},{"type":"Feature","properties":{"name":"San Jos\u00e9","adm0name":"Costa Rica","latitude":9.93501242974,"longitude":-84.0840513527,"pop_max":1284000,"megacity":1,"worldcity":0,"adm0cap":1},"bbox":[-84.085997,9.936958,-84.085997,9.936958]},{"type":"Feature","properties":{"name":"San Salvador","adm0name":"El Salvador","latitude":13.7100016469,"longitude":-89.2030412208,"pop_max":1433000,"megacity":1,"worldcity":0,"adm0cap":1},"bbox":[-89.204987,13.711948,-89.204987,13.711948]},{"type":"Feature","properties":{"name":"Kingston","adm0name":"Jamaica","latitude":17.9770766238,"longitude":-76.7674337137,"pop_max":937700,"megacity":0,"worldcity":0,"adm0cap":1},"bbox":[-76.767434,17.977077,-76.767434,17.977077]},{"type":"Feature","properties":{"name":"Ndjamena","adm0name":"Chad","latitude":12.1130965362,"longitude":15.0491483141,"pop_max":989000,"megacity":1,"worldcity":0,"adm0cap":1},"bbox":[15.047202,12.115042,15.047202,12.115042]},{"type":"Feature","properties":{"name":"Malabo","adm0name":"Equatorial Guinea","latitude":3.75001527803,"longitude":8.78327754582,"pop_max":155963,"megacity":0,"worldcity":0,"adm0cap":1},"bbox":[8.783278,3.750015,8.783278,3.750015]},{"type":"Feature","properties":{"name":"Asmara","adm0name":"Eritrea","latitude":15.3333392527,"longitude":38.9333235258,"pop_max":620802,"megacity":0,"worldcity":0,"adm0cap":1},"bbox":[38.933324,15.333339,38.933324,15.333339]},{"type":"Feature","properties":{"name":"Zagreb","adm0name":"Croatia","latitude":45.8000067333,"longitude":15.9999946682,"pop_max":722526,"megacity":0,"worldcity":0,"adm0cap":1},"bbox":[15.999995,45.800007,15.999995,45.800007]},{"type":"Feature","properties":{"name":"Tallinn","adm0name":"Estonia","latitude":59.4338773795,"longitude":24.7280407295,"pop_max":394024,"megacity":0,"worldcity":0,"adm0cap":1},"bbox":[24.728041,59.433877,24.728041,59.433877]},{"type":"Feature","properties":{"name":"Lilongwe","adm0name":"Malawi","latitude":-13.9832950655,"longitude":33.78330196,"pop_max":646750,"megacity":0,"worldcity":0,"adm0cap":1},"bbox":[33.783302,-13.983295,33.783302,-13.983295]},{"type":"Feature","properties":{"name":"Guatemala","adm0name":"Guatemala","latitude":14.6211346628,"longitude":-90.5269655779,"pop_max":1024000,"megacity":1,"worldcity":0,"adm0cap":1},"bbox":[-90.528911,14.623081,-90.528911,14.623081]},{"type":"Feature","properties":{"name":"Libreville","adm0name":"Gabon","latitude":0.38538860972,"longitude":9.45796504582,"pop_max":578156,"megacity":0,"worldcity":0,"adm0cap":1},"bbox":[9.457965,0.385389,9.457965,0.385389]},{"type":"Feature","properties":{"name":"Suva","adm0name":"Fiji","latitude":-18.1330159314,"longitude":178.441707315,"pop_max":175399,"megacity":0,"worldcity":0,"adm0cap":1},"bbox":[178.441707,-18.133016,178.441707,-18.133016]},{"type":"Feature","properties":{"name":"Valpara\u00edso","adm0name":"Chile","latitude":-33.0477644666,"longitude":-71.6210136329,"pop_max":854000,"megacity":1,"worldcity":0,"adm0cap":0},"bbox":[-71.622959,-33.045819,-71.622959,-33.045819]},{"type":"Feature","properties":{"name":"Nouakchott","adm0name":"Mauritania","latitude":18.0864270212,"longitude":-15.9753404149,"pop_max":742144,"megacity":0,"worldcity":0,"adm0cap":1},"bbox":[-15.97534,18.086427,-15.97534,18.086427]},{"type":"Feature","properties":{"name":"Bamako","adm0name":"Mali","latitude":12.6500146677,"longitude":-8.00003910464,"pop_max":1494000,"megacity":1,"worldcity":0,"adm0cap":1},"bbox":[-8.001985,12.651961,-8.001985,12.651961]},{"type":"Feature","properties":{"name":"Beirut","adm0name":"Lebanon","latitude":33.871975117,"longitude":35.50970821,"pop_max":1846000,"megacity":1,"worldcity":0,"adm0cap":1},"bbox":[35.507762,33.873921,35.507762,33.873921]},{"type":"Feature","properties":{"name":"Tbilisi","adm0name":"Georgia","latitude":41.7250099885,"longitude":44.7907954496,"pop_max":1100000,"megacity":1,"worldcity":0,"adm0cap":1},"bbox":[44.78885,41.726956,44.78885,41.726956]},{"type":"Feature","properties":{"name":"Astana","adm0name":"Kazakhstan","latitude":51.1811253043,"longitude":71.4277742095,"pop_max":345604,"megacity":0,"worldcity":0,"adm0cap":1},"bbox":[71.427774,51.181125,71.427774,51.181125]},{"type":"Feature","properties":{"name":"Vientiane","adm0name":"Laos","latitude":17.9666927276,"longitude":102.59998002,"pop_max":754000,"megacity":0,"worldcity":0,"adm0cap":1},"bbox":[102.59998,17.966693,102.59998,17.966693]},{"type":"Feature","properties":{"name":"Brazzaville","adm0name":"Congo (Brazzaville)","latitude":-4.25918577181,"longitude":15.2846894925,"pop_max":1355000,"megacity":1,"worldcity":0,"adm0cap":1},"bbox":[15.282744,-4.25724,15.282744,-4.25724]},{"type":"Feature","properties":{"name":"Conakry","adm0name":"Guinea","latitude":9.53152284641,"longitude":-13.6802350275,"pop_max":1494000,"megacity":1,"worldcity":0,"adm0cap":1},"bbox":[-13.682181,9.533469,-13.682181,9.533469]},{"type":"Feature","properties":{"name":"Yamoussoukro","adm0name":"Ivory Coast","latitude":6.81838096,"longitude":-5.27550256491,"pop_max":206499,"megacity":0,"worldcity":0,"adm0cap":1},"bbox":[-5.275503,6.818381,-5.275503,6.818381]},{"type":"Feature","properties":{"name":"Ottawa","adm0name":"Canada","latitude":45.4166967967,"longitude":-75.7000153012,"pop_max":1145000,"megacity":1,"worldcity":0,"adm0cap":1},"bbox":[-75.701961,45.418643,-75.701961,45.418643]},{"type":"Feature","properties":{"name":"Belgrade","adm0name":"Serbia","latitude":44.8186454458,"longitude":20.4679906806,"pop_max":1099000,"megacity":1,"worldcity":0,"adm0cap":1},"bbox":[20.466045,44.820591,20.466045,44.820591]},{"type":"Feature","properties":{"name":"Bandar Seri Begawan","adm0name":"Brunei","latitude":4.88333111462,"longitude":114.933284057,"pop_max":296500,"megacity":0,"worldcity":0,"adm0cap":1},"bbox":[114.933284,4.883331,114.933284,4.883331]},{"type":"Feature","properties":{"name":"Sucre","adm0name":"Bolivia","latitude":-19.0409708467,"longitude":-65.2595156267,"pop_max":224838,"megacity":0,"worldcity":0,"adm0cap":1},"bbox":[-65.259516,-19.040971,-65.259516,-19.040971]},{"type":"Feature","properties":{"name":"Belmopan","adm0name":"Belize","latitude":17.2520335072,"longitude":-88.7670729998,"pop_max":15220,"megacity":0,"worldcity":0,"adm0cap":1},"bbox":[-88.767073,17.252034,-88.767073,17.252034]},{"type":"Feature","properties":{"name":"Bangui","adm0name":"Central African Republic","latitude":4.36664430635,"longitude":18.5582881253,"pop_max":831925,"megacity":0,"worldcity":0,"adm0cap":1},"bbox":[18.558288,4.366644,18.558288,4.366644]},{"type":"Feature","properties":{"name":"Yaounde","adm0name":"Cameroon","latitude":3.86670066214,"longitude":11.5166507555,"pop_max":1611000,"megacity":1,"worldcity":0,"adm0cap":1},"bbox":[11.514705,3.868647,11.514705,3.868647]},{"type":"Feature","properties":{"name":"Tirana","adm0name":"Albania","latitude":41.3275407095,"longitude":19.8188830146,"pop_max":895350,"megacity":0,"worldcity":0,"adm0cap":1},"bbox":[19.818883,41.327541,19.818883,41.327541]},{"type":"Feature","properties":{"name":"Yerevan","adm0name":"Armenia","latitude":40.1811507355,"longitude":44.5135513904,"pop_max":1102000,"megacity":1,"worldcity":0,"adm0cap":1},"bbox":[44.511606,40.183097,44.511606,40.183097]},{"type":"Feature","properties":{"name":"Baku","adm0name":"Azerbaijan","latitude":40.3952720327,"longitude":49.8622171619,"pop_max":2122300,"megacity":1,"worldcity":0,"adm0cap":1},"bbox":[49.860271,40.397218,49.860271,40.397218]},{"type":"Feature","properties":{"name":"Phnom Penh","adm0name":"Cambodia","latitude":11.5500301299,"longitude":104.91663448,"pop_max":1466000,"megacity":1,"worldcity":0,"adm0cap":1},"bbox":[104.914689,11.551976,104.914689,11.551976]},{"type":"Feature","properties":{"name":"La Paz","adm0name":"Bolivia","latitude":-16.4979736137,"longitude":-68.1499851905,"pop_max":1590000,"megacity":1,"worldcity":0,"adm0cap":1},"bbox":[-68.151931,-16.496028,-68.151931,-16.496028]},{"type":"Feature","properties":{"name":"Cotonou","adm0name":"Benin","latitude":6.40000856417,"longitude":2.51999059918,"pop_max":762000,"megacity":1,"worldcity":0,"adm0cap":1},"bbox":[2.518045,6.401954,2.518045,6.401954]},{"type":"Feature","properties":{"name":"Sofia","adm0name":"Bulgaria","latitude":42.6833494253,"longitude":23.3166540107,"pop_max":1185000,"megacity":1,"worldcity":0,"adm0cap":1},"bbox":[23.314708,42.685295,23.314708,42.685295]},{"type":"Feature","properties":{"name":"Minsk","adm0name":"Belarus","latitude":53.8999774364,"longitude":27.5666271553,"pop_max":1805000,"megacity":1,"worldcity":0,"adm0cap":1},"bbox":[27.564681,53.901923,27.564681,53.901923]},{"type":"Feature","properties":{"name":"Thimphu","adm0name":"Bhutan","latitude":27.4729858592,"longitude":89.639014037,"pop_max":98676,"megacity":0,"worldcity":0,"adm0cap":1},"bbox":[89.639014,27.472986,89.639014,27.472986]},{"type":"Feature","properties":{"name":"Gaborone","adm0name":"Botswana","latitude":-24.6463134574,"longitude":25.9119477933,"pop_max":208411,"megacity":0,"worldcity":0,"adm0cap":1},"bbox":[25.911948,-24.646313,25.911948,-24.646313]},{"type":"Feature","properties":{"name":"Canberra","adm0name":"Australia","latitude":-35.2830285454,"longitude":149.129026244,"pop_max":327700,"megacity":0,"worldcity":0,"adm0cap":1},"bbox":[149.129026,-35.283029,149.129026,-35.283029]},{"type":"Feature","properties":{"name":"Ouagadougou","adm0name":"Burkina Faso","latitude":12.3703159779,"longitude":-1.5247237563,"pop_max":1149000,"megacity":1,"worldcity":0,"adm0cap":1},"bbox":[-1.52667,12.372262,-1.52667,12.372262]},{"type":"Feature","properties":{"name":"Sarajevo","adm0name":"Bosnia and Herzegovina","latitude":43.850022399,"longitude":18.383001667,"pop_max":696731,"megacity":0,"worldcity":0,"adm0cap":1},"bbox":[18.383002,43.850022,18.383002,43.850022]},{"type":"Feature","properties":{"name":"Naypyidaw","adm0name":"Myanmar","latitude":19.7665570261,"longitude":96.1186185292,"pop_max":930000,"megacity":1,"worldcity":0,"adm0cap":1},"bbox":[96.116673,19.768503,96.116673,19.768503]},{"type":"Feature","properties":{"name":"Nukualofa","adm0name":"Tonga","latitude":-21.1385123567,"longitude":-175.220564478,"pop_max":42620,"megacity":0,"worldcity":0,"adm0cap":1},"bbox":[-175.220564,-21.138512,-175.220564,-21.138512]},{"type":"Feature","properties":{"name":"Hargeysa","adm0name":"Somaliland","latitude":9.56002239882,"longitude":44.0653100167,"pop_max":477876,"megacity":0,"worldcity":0,"adm0cap":1},"bbox":[44.06531,9.560022,44.06531,9.560022]},{"type":"Feature","properties":{"name":"Victoria","adm0name":"Seychelles","latitude":-4.61663165397,"longitude":55.4499897856,"pop_max":33576,"megacity":0,"worldcity":0,"adm0cap":1},"bbox":[55.44999,-4.616632,55.44999,-4.616632]},{"type":"Feature","properties":{"name":"S\u00e3o Tom\u00e9","adm0name":"Sao Tome and Principe","latitude":0.33340211883,"longitude":6.73332515323,"pop_max":88219,"megacity":0,"worldcity":0,"adm0cap":1},"bbox":[6.733325,0.333402,6.733325,0.333402]},{"type":"Feature","properties":{"name":"Apia","adm0name":"Samoa","latitude":-13.8415450424,"longitude":-171.738641609,"pop_max":61916,"megacity":0,"worldcity":0,"adm0cap":1},"bbox":[-171.738642,-13.841545,-171.738642,-13.841545]},{"type":"Feature","properties":{"name":"Valletta","adm0name":"Malta","latitude":35.8997324819,"longitude":14.5147106513,"pop_max":368250,"megacity":0,"worldcity":0,"adm0cap":1},"bbox":[14.514711,35.899732,14.514711,35.899732]},{"type":"Feature","properties":{"name":"Mal\u00e9","adm0name":"Maldives","latitude":4.16670818981,"longitude":73.499947468,"pop_max":112927,"megacity":0,"worldcity":0,"adm0cap":1},"bbox":[73.499947,4.166708,73.499947,4.166708]},{"type":"Feature","properties":{"name":"Jerusalem","adm0name":"Israel","latitude":31.7784078156,"longitude":35.2066259346,"pop_max":1029300,"megacity":0,"worldcity":0,"adm0cap":1},"bbox":[35.206626,31.778408,35.206626,31.778408]},{"type":"Feature","properties":{"name":"Praia","adm0name":"Cape Verde","latitude":14.9166980173,"longitude":-23.516688885,"pop_max":113364,"megacity":0,"worldcity":0,"adm0cap":1},"bbox":[-23.516689,14.916698,-23.516689,14.916698]},{"type":"Feature","properties":{"name":"Nassau","adm0name":"The Bahamas","latitude":25.0833901154,"longitude":-77.3500437843,"pop_max":227940,"megacity":0,"worldcity":0,"adm0cap":1},"bbox":[-77.350044,25.08339,-77.350044,25.08339]},{"type":"Feature","properties":{"name":"Nicosia","adm0name":"Cyprus","latitude":35.1666764517,"longitude":33.3666348864,"pop_max":224300,"megacity":0,"worldcity":0,"adm0cap":1},"bbox":[33.366635,35.166676,33.366635,35.166676]},{"type":"Feature","properties":{"name":"Wellington","adm0name":"New Zealand","latitude":-41.29998785369,"longitude":174.78326585928,"pop_max":393400,"megacity":0,"worldcity":0,"adm0cap":1},"bbox":[174.783266,-41.299988,174.783266,-41.299988]},{"type":"Feature","properties":{"name":"Hanoi","adm0name":"Vietnam","latitude":21.0333272491,"longitude":105.8500142,"pop_max":4378000,"megacity":1,"worldcity":0,"adm0cap":1},"bbox":[105.848068,21.035273,105.848068,21.035273]},{"type":"Feature","properties":{"name":"Ankara","adm0name":"Turkey","latitude":39.9272385855,"longitude":32.864391641,"pop_max":3716000,"megacity":1,"worldcity":0,"adm0cap":1},"bbox":[32.862446,39.929184,32.862446,39.929184]},{"type":"Feature","properties":{"name":"Budapest","adm0name":"Hungary","latitude":47.5000063264,"longitude":19.0833206774,"pop_max":1679000,"megacity":1,"worldcity":1,"adm0cap":1},"bbox":[19.081375,47.501952,19.081375,47.501952]},{"type":"Feature","properties":{"name":"Sanaa","adm0name":"Yemen","latitude":15.3547332957,"longitude":44.2065933826,"pop_max":2008000,"megacity":1,"worldcity":0,"adm0cap":1},"bbox":[44.204648,15.356679,44.204648,15.356679]},{"type":"Feature","properties":{"name":"Bucharest","adm0name":"Romania","latitude":44.4333718049,"longitude":26.099946654,"pop_max":1942000,"megacity":1,"worldcity":1,"adm0cap":1},"bbox":[26.098001,44.435318,26.098001,44.435318]},{"type":"Feature","properties":{"name":"Damascus","adm0name":"Syria","latitude":33.5000339956,"longitude":36.299995889,"pop_max":2466000,"megacity":1,"worldcity":0,"adm0cap":1},"bbox":[36.29805,33.50198,36.29805,33.50198]},{"type":"Feature","properties":{"name":"Lisbon","adm0name":"Portugal","latitude":38.7227228779,"longitude":-9.14486630549,"pop_max":2812000,"megacity":1,"worldcity":1,"adm0cap":1},"bbox":[-9.146812,38.724669,-9.146812,38.724669]},{"type":"Feature","properties":{"name":"Khartoum","adm0name":"Sudan","latitude":15.5880782257,"longitude":32.5341792386,"pop_max":4754000,"megacity":1,"worldcity":0,"adm0cap":1},"bbox":[32.532233,15.590024,32.532233,15.590024]},{"type":"Feature","properties":{"name":"Oslo","adm0name":"Norway","latitude":59.9166902864,"longitude":10.749979206,"pop_max":835000,"megacity":1,"worldcity":1,"adm0cap":1},"bbox":[10.748033,59.918636,10.748033,59.918636]},{"type":"Feature","properties":{"name":"Warsaw","adm0name":"Poland","latitude":52.2500006298,"longitude":20.9999995511,"pop_max":1707000,"megacity":1,"worldcity":1,"adm0cap":1},"bbox":[20.998054,52.251946,20.998054,52.251946]},{"type":"Feature","properties":{"name":"Pyongyang","adm0name":"North Korea","latitude":39.0194386994,"longitude":125.754690714,"pop_max":3300000,"megacity":1,"worldcity":0,"adm0cap":1},"bbox":[125.752745,39.021385,125.752745,39.021385]},{"type":"Feature","properties":{"name":"Dar es Salaam","adm0name":"Tanzania","latitude":-6.80001259474,"longitude":39.2683418363,"pop_max":2930000,"megacity":1,"worldcity":0,"adm0cap":1},"bbox":[39.266396,-6.798067,39.266396,-6.798067]},{"type":"Feature","properties":{"name":"Dublin","adm0name":"Ireland","latitude":53.333061136,"longitude":-6.24890568178,"pop_max":1059000,"megacity":1,"worldcity":1,"adm0cap":1},"bbox":[-6.250852,53.335007,-6.250852,53.335007]},{"type":"Feature","properties":{"name":"Monrovia","adm0name":"Liberia","latitude":6.31055665987,"longitude":-10.8047516291,"pop_max":1041000,"megacity":1,"worldcity":0,"adm0cap":1},"bbox":[-10.79966,6.314582,-10.79966,6.314582]},{"type":"Feature","properties":{"name":"Kuala Lumpur","adm0name":"Malaysia","latitude":3.1666658721,"longitude":101.699983275,"pop_max":1448000,"megacity":1,"worldcity":1,"adm0cap":1},"bbox":[101.698037,3.168612,101.698037,3.168612]},{"type":"Feature","properties":{"name":"Havana","adm0name":"Cuba","latitude":23.1319588409,"longitude":-82.3641821713,"pop_max":2174000,"megacity":1,"worldcity":0,"adm0cap":1},"bbox":[-82.366128,23.133905,-82.366128,23.133905]},{"type":"Feature","properties":{"name":"Prague","adm0name":"Czech Republic","latitude":50.0833370149,"longitude":14.4659797757,"pop_max":1162000,"megacity":1,"worldcity":1,"adm0cap":1},"bbox":[14.464034,50.085283,14.464034,50.085283]},{"type":"Feature","properties":{"name":"Kuwait","adm0name":"Kuwait","latitude":29.36971763,"longitude":47.9783011462,"pop_max":2063000,"megacity":1,"worldcity":0,"adm0cap":1},"bbox":[47.976355,29.371663,47.976355,29.371663]},{"type":"Feature","properties":{"name":"Santo Domingo","adm0name":"Dominican Republic","latitude":18.4700728546,"longitude":-69.9000850847,"pop_max":2154000,"megacity":1,"worldcity":0,"adm0cap":1},"bbox":[-69.902031,18.472019,-69.902031,18.472019]},{"type":"Feature","properties":{"name":"Accra","adm0name":"Ghana","latitude":5.55003460583,"longitude":-0.21671574035,"pop_max":2121000,"megacity":1,"worldcity":0,"adm0cap":1},"bbox":[-0.218662,5.55198,-0.218662,5.55198]},{"type":"Feature","properties":{"name":"Tripoli","adm0name":"Libya","latitude":32.8925000194,"longitude":13.1800117581,"pop_max":2189000,"megacity":1,"worldcity":0,"adm0cap":1},"bbox":[13.180012,32.8925,13.180012,32.8925]},{"type":"Feature","properties":{"name":"Tel Aviv-Yafo","adm0name":"Israel","latitude":32.0799914744,"longitude":34.7700117582,"pop_max":3112000,"megacity":1,"worldcity":0,"adm0cap":0},"bbox":[34.768066,32.081937,34.768066,32.081937]},{"type":"Feature","properties":{"name":"Helsinki","adm0name":"Finland","latitude":60.175563374,"longitude":24.9341263415,"pop_max":1115000,"megacity":1,"worldcity":1,"adm0cap":1},"bbox":[24.93218,60.177509,24.93218,60.177509]},{"type":"Feature","properties":{"name":"K\u00f8benhavn","adm0name":"Denmark","latitude":55.6785641904,"longitude":12.5634857473,"pop_max":1085000,"megacity":1,"worldcity":1,"adm0cap":1},"bbox":[12.56154,55.68051,12.56154,55.68051]},{"type":"Feature","properties":{"name":"Abidjan","adm0name":"Ivory Coast","latitude":5.31999696749,"longitude":-4.04004825989,"pop_max":3802000,"megacity":1,"worldcity":0,"adm0cap":1},"bbox":[-4.041994,5.321943,-4.041994,5.321943]},{"type":"Feature","properties":{"name":"Bras\u00edlia","adm0name":"Brazil","latitude":-15.7833402315,"longitude":-47.9160522884,"pop_max":3716996,"megacity":1,"worldcity":0,"adm0cap":1},"bbox":[-47.917998,-15.781394,-47.917998,-15.781394]},{"type":"Feature","properties":{"name":"Brussels","adm0name":"Belgium","latitude":50.8333170767,"longitude":4.3333166083,"pop_max":1743000,"megacity":1,"worldcity":1,"adm0cap":1},"bbox":[4.331371,50.835263,4.331371,50.835263]},{"type":"Feature","properties":{"name":"Dhaka","adm0name":"Bangladesh","latitude":23.7230597117,"longitude":90.4085794667,"pop_max":12797394,"megacity":1,"worldcity":0,"adm0cap":1},"bbox":[90.406634,23.725006,90.406634,23.725006]},{"type":"Feature","properties":{"name":"Luanda","adm0name":"Angola","latitude":-8.83828611363,"longitude":13.2344270413,"pop_max":5172900,"megacity":1,"worldcity":0,"adm0cap":1},"bbox":[13.232481,-8.83634,13.232481,-8.83634]},{"type":"Feature","properties":{"name":"Algiers","adm0name":"Algeria","latitude":36.763064798,"longitude":3.05055252952,"pop_max":3354000,"megacity":1,"worldcity":0,"adm0cap":1},"bbox":[3.048607,36.765011,3.048607,36.765011]},{"type":"Feature","properties":{"name":"Rangoon","adm0name":"Myanmar","latitude":16.7833541046,"longitude":96.1666776113,"pop_max":4088000,"megacity":1,"worldcity":0,"adm0cap":0},"bbox":[96.164732,16.7853,96.164732,16.7853]},{"type":"Feature","properties":{"name":"San Francisco","adm0name":"United States of America","latitude":37.7400077505,"longitude":-122.459977663,"pop_max":3450000,"megacity":1,"worldcity":1,"adm0cap":0},"bbox":[-122.417169,37.769196,-122.417169,37.769196]},{"type":"Feature","properties":{"name":"Denver","adm0name":"United States of America","latitude":39.7391880484,"longitude":-104.984015952,"pop_max":2313000,"megacity":1,"worldcity":0,"adm0cap":0},"bbox":[-104.985962,39.741134,-104.985962,39.741134]},{"type":"Feature","properties":{"name":"Houston","adm0name":"United States of America","latitude":29.8199743846,"longitude":-95.3399792905,"pop_max":4459000,"megacity":1,"worldcity":0,"adm0cap":0},"bbox":[-95.341925,29.82192,-95.341925,29.82192]},{"type":"Feature","properties":{"name":"Miami","adm0name":"United States of America","latitude":25.7876106964,"longitude":-80.2241060808,"pop_max":5585000,"megacity":1,"worldcity":1,"adm0cap":0},"bbox":[-80.226052,25.789557,-80.226052,25.789557]},{"type":"Feature","properties":{"name":"Atlanta","adm0name":"United States of America","latitude":33.830013854,"longitude":-84.3999493833,"pop_max":4506000,"megacity":1,"worldcity":1,"adm0cap":0},"bbox":[-84.401895,33.83196,-84.401895,33.83196]},{"type":"Feature","properties":{"name":"Chicago","adm0name":"United States of America","latitude":41.8299906607,"longitude":-87.7500549741,"pop_max":8990000,"megacity":1,"worldcity":1,"adm0cap":0},"bbox":[-87.752001,41.831937,-87.752001,41.831937]},{"type":"Feature","properties":{"name":"Caracas","adm0name":"Venezuela","latitude":10.5009985544,"longitude":-66.9170371924,"pop_max":2985000,"megacity":1,"worldcity":1,"adm0cap":1},"bbox":[-66.918983,10.502944,-66.918983,10.502944]},{"type":"Feature","properties":{"name":"Kiev","adm0name":"Ukraine","latitude":50.433367329,"longitude":30.5166279691,"pop_max":2709000,"megacity":1,"worldcity":0,"adm0cap":1},"bbox":[30.514682,50.435313,30.514682,50.435313]},{"type":"Feature","properties":{"name":"Dubai","adm0name":"United Arab Emirates","latitude":25.2299961538,"longitude":55.2799743234,"pop_max":1379000,"megacity":1,"worldcity":1,"adm0cap":0},"bbox":[55.278028,25.231942,55.278028,25.231942]},{"type":"Feature","properties":{"name":"Tashkent","adm0name":"Uzbekistan","latitude":41.311701883,"longitude":69.2949328195,"pop_max":2184000,"megacity":1,"worldcity":0,"adm0cap":1},"bbox":[69.292987,41.313648,69.292987,41.313648]},{"type":"Feature","properties":{"name":"Madrid","adm0name":"Spain","latitude":40.4000262645,"longitude":-3.683351686,"pop_max":5567000,"megacity":1,"worldcity":1,"adm0cap":1},"bbox":[-3.685298,40.401972,-3.685298,40.401972]},{"type":"Feature","properties":{"name":"Geneva","adm0name":"Switzerland","latitude":46.2100075471,"longitude":6.14002803409,"pop_max":1240000,"megacity":0,"worldcity":1,"adm0cap":0},"bbox":[6.140028,46.210008,6.140028,46.210008]},{"type":"Feature","properties":{"name":"Stockholm","adm0name":"Sweden","latitude":59.3507599543,"longitude":18.0973347328,"pop_max":1264000,"megacity":1,"worldcity":1,"adm0cap":1},"bbox":[18.095389,59.352706,18.095389,59.352706]},{"type":"Feature","properties":{"name":"Bangkok","adm0name":"Thailand","latitude":13.7499992055,"longitude":100.516644652,"pop_max":6704000,"megacity":1,"worldcity":1,"adm0cap":1},"bbox":[100.514699,13.751945,100.514699,13.751945]},{"type":"Feature","properties":{"name":"Lima","adm0name":"Peru","latitude":-12.0480126761,"longitude":-77.0500620948,"pop_max":8012000,"megacity":1,"worldcity":0,"adm0cap":1},"bbox":[-77.052008,-12.046067,-77.052008,-12.046067]},{"type":"Feature","properties":{"name":"Dakar","adm0name":"Senegal","latitude":14.715831725,"longitude":-17.4731301284,"pop_max":2604000,"megacity":1,"worldcity":0,"adm0cap":1},"bbox":[-17.475076,14.717778,-17.475076,14.717778]},{"type":"Feature","properties":{"name":"Johannesburg","adm0name":"South Africa","latitude":-26.17004474,"longitude":28.0300097236,"pop_max":3435000,"megacity":1,"worldcity":1,"adm0cap":0},"bbox":[28.028064,-26.168099,28.028064,-26.168099]},{"type":"Feature","properties":{"name":"Amsterdam","adm0name":"Netherlands","latitude":52.3499686881,"longitude":4.91664017601,"pop_max":1031000,"megacity":1,"worldcity":1,"adm0cap":1},"bbox":[4.914694,52.351915,4.914694,52.351915]},{"type":"Feature","properties":{"name":"Casablanca","adm0name":"Morocco","latitude":33.5999762156,"longitude":-7.61636743309,"pop_max":3181000,"megacity":1,"worldcity":1,"adm0cap":0},"bbox":[-7.618313,33.601922,-7.618313,33.601922]},{"type":"Feature","properties":{"name":"Seoul","adm0name":"South Korea","latitude":37.5663490998,"longitude":126.999730997,"pop_max":9796000,"megacity":1,"worldcity":1,"adm0cap":1},"bbox":[126.997785,37.568295,126.997785,37.568295]},{"type":"Feature","properties":{"name":"Manila","adm0name":"Philippines","latitude":14.6041589548,"longitude":120.982217162,"pop_max":11100000,"megacity":1,"worldcity":1,"adm0cap":1},"bbox":[120.980271,14.606105,120.980271,14.606105]},{"type":"Feature","properties":{"name":"Monterrey","adm0name":"Mexico","latitude":25.6699951365,"longitude":-100.329984784,"pop_max":3712000,"megacity":1,"worldcity":0,"adm0cap":0},"bbox":[-100.331931,25.671941,-100.331931,25.671941]},{"type":"Feature","properties":{"name":"Berlin","adm0name":"Germany","latitude":52.5218186636,"longitude":13.4015486233,"pop_max":3406000,"megacity":1,"worldcity":1,"adm0cap":1},"bbox":[13.399603,52.523765,13.399603,52.523765]},{"type":"Feature","properties":{"name":"\u00dcr\u00fcmqi","adm0name":"China","latitude":43.8050122264,"longitude":87.5750056549,"pop_max":2151000,"megacity":1,"worldcity":0,"adm0cap":0},"bbox":[87.57306,43.806958,87.57306,43.806958]},{"type":"Feature","properties":{"name":"Chengdu","adm0name":"China","latitude":30.6700000193,"longitude":104.07001949,"pop_max":4123000,"megacity":1,"worldcity":0,"adm0cap":0},"bbox":[104.068074,30.671946,104.068074,30.671946]},{"type":"Feature","properties":{"name":"\u014csaka","adm0name":"Japan","latitude":34.7500352163,"longitude":135.460144815,"pop_max":11294000,"megacity":1,"worldcity":1,"adm0cap":0},"bbox":[135.458199,34.751981,135.458199,34.751981]},{"type":"Feature","properties":{"name":"Kinshasa","adm0name":"Congo (Kinshasa)","latitude":-4.32972410189,"longitude":15.3149718818,"pop_max":7843000,"megacity":1,"worldcity":0,"adm0cap":1},"bbox":[15.313026,-4.327778,15.313026,-4.327778]},{"type":"Feature","properties":{"name":"New Delhi","adm0name":"India","latitude":28.6000230092,"longitude":77.1999800201,"pop_max":317797,"megacity":0,"worldcity":1,"adm0cap":1},"bbox":[77.19998,28.600023,77.19998,28.600023]},{"type":"Feature","properties":{"name":"Bangalore","adm0name":"India","latitude":12.9699951365,"longitude":77.5600097238,"pop_max":6787000,"megacity":1,"worldcity":0,"adm0cap":0},"bbox":[77.558064,12.971941,77.558064,12.971941]},{"type":"Feature","properties":{"name":"Athens","adm0name":"Greece","latitude":37.9833262319,"longitude":23.7333210843,"pop_max":3242000,"megacity":1,"worldcity":1,"adm0cap":1},"bbox":[23.731375,37.985272,23.731375,37.985272]},{"type":"Feature","properties":{"name":"Baghdad","adm0name":"Iraq","latitude":33.3386484975,"longitude":44.3938687732,"pop_max":5054000,"megacity":1,"worldcity":0,"adm0cap":1},"bbox":[44.391923,33.340594,44.391923,33.340594]},{"type":"Feature","properties":{"name":"Addis Ababa","adm0name":"Ethiopia","latitude":9.03331036268,"longitude":38.700004434,"pop_max":3100000,"megacity":1,"worldcity":0,"adm0cap":1},"bbox":[38.698059,9.035256,38.698059,9.035256]},{"type":"Feature","properties":{"name":"Tehran","adm0name":"Iran","latitude":35.6719427684,"longitude":51.4243440336,"pop_max":7873000,"megacity":1,"worldcity":0,"adm0cap":1},"bbox":[51.422398,35.673889,51.422398,35.673889]},{"type":"Feature","properties":{"name":"Vancouver","adm0name":"Canada","latitude":49.2734165841,"longitude":-123.121644218,"pop_max":2313328,"megacity":1,"worldcity":0,"adm0cap":0},"bbox":[-123.12359,49.275362,-123.12359,49.275362]},{"type":"Feature","properties":{"name":"Toronto","adm0name":"Canada","latitude":43.6999798778,"longitude":-79.4200207944,"pop_max":5213000,"megacity":1,"worldcity":1,"adm0cap":0},"bbox":[-79.421967,43.701926,-79.421967,43.701926]},{"type":"Feature","properties":{"name":"Buenos Aires","adm0name":"Argentina","latitude":-34.6025016085,"longitude":-58.3975313737,"pop_max":12795000,"megacity":1,"worldcity":1,"adm0cap":1},"bbox":[-58.399477,-34.600556,-58.399477,-34.600556]},{"type":"Feature","properties":{"name":"Kabul","adm0name":"Afghanistan","latitude":34.5166902863,"longitude":69.1832600493,"pop_max":3277000,"megacity":1,"worldcity":0,"adm0cap":1},"bbox":[69.181314,34.518636,69.181314,34.518636]},{"type":"Feature","properties":{"name":"Vienna","adm0name":"Austria","latitude":48.2000152782,"longitude":16.3666389554,"pop_max":2400000,"megacity":1,"worldcity":1,"adm0cap":1},"bbox":[16.364693,48.201961,16.364693,48.201961]},{"type":"Feature","properties":{"name":"Melbourne","adm0name":"Australia","latitude":-37.8200313123,"longitude":144.975016235,"pop_max":4170000,"megacity":1,"worldcity":1,"adm0cap":0},"bbox":[144.97307,-37.818085,144.97307,-37.818085]},{"type":"Feature","properties":{"name":"Taipei","adm0name":"Taiwan","latitude":25.03583333333,"longitude":121.56833333333,"pop_max":6900273,"megacity":1,"worldcity":1,"adm0cap":1},"bbox":[121.568333,25.035833,121.568333,25.035833]},{"type":"Feature","properties":{"name":"Auckland","adm0name":"New Zealand","latitude":-36.84805489493,"longitude":174.76302698708,"pop_max":1377200,"megacity":1,"worldcity":1,"adm0cap":0},"bbox":[174.763027,-36.848055,174.763027,-36.848055]},{"type":"Feature","properties":{"name":"Los Angeles","adm0name":"United States of America","latitude":33.9899782502,"longitude":-118.179980511,"pop_max":12500000,"megacity":1,"worldcity":1,"adm0cap":0},"bbox":[-118.181926,33.991924,-118.181926,33.991924]},{"type":"Feature","properties":{"name":"Washington, D.C.","adm0name":"United States of America","latitude":38.8995493765,"longitude":-77.0094185808,"pop_max":4338000,"megacity":1,"worldcity":1,"adm0cap":1},"bbox":[-77.011364,38.901495,-77.011364,38.901495]},{"type":"Feature","properties":{"name":"New York","adm0name":"United States of America","latitude":40.749979064,"longitude":-73.9800169288,"pop_max":19040000,"megacity":1,"worldcity":1,"adm0cap":0},"bbox":[-73.981963,40.751925,-73.981963,40.751925]},{"type":"Feature","properties":{"name":"London","adm0name":"United Kingdom","latitude":51.4999947297,"longitude":-0.11672184386,"pop_max":8567000,"megacity":1,"worldcity":1,"adm0cap":1},"bbox":[-0.118668,51.501941,-0.118668,51.501941]},{"type":"Feature","properties":{"name":"Istanbul","adm0name":"Turkey","latitude":41.1049961538,"longitude":29.0100015856,"pop_max":10061000,"megacity":1,"worldcity":1,"adm0cap":0},"bbox":[29.008056,41.106942,29.008056,41.106942]},{"type":"Feature","properties":{"name":"Riyadh","adm0name":"Saudi Arabia","latitude":24.6408331492,"longitude":46.7727416573,"pop_max":4465000,"megacity":1,"worldcity":1,"adm0cap":1},"bbox":[46.770796,24.642779,46.770796,24.642779]},{"type":"Feature","properties":{"name":"Cape Town","adm0name":"South Africa","latitude":-33.9200109672,"longitude":18.4349881578,"pop_max":3215000,"megacity":1,"worldcity":1,"adm0cap":1},"bbox":[18.433042,-33.918065,18.433042,-33.918065]},{"type":"Feature","properties":{"name":"Moscow","adm0name":"Russia","latitude":55.7521641226,"longitude":37.6155228259,"pop_max":10452000,"megacity":1,"worldcity":1,"adm0cap":1},"bbox":[37.613577,55.75411,37.613577,55.75411]},{"type":"Feature","properties":{"name":"Mexico City","adm0name":"Mexico","latitude":19.4424424428,"longitude":-99.1309882017,"pop_max":19028000,"megacity":1,"worldcity":1,"adm0cap":1},"bbox":[-99.132934,19.444388,-99.132934,19.444388]},{"type":"Feature","properties":{"name":"Lagos","adm0name":"Nigeria","latitude":6.44326165348,"longitude":3.39153107121,"pop_max":9466000,"megacity":1,"worldcity":1,"adm0cap":0},"bbox":[3.389585,6.445208,3.389585,6.445208]},{"type":"Feature","properties":{"name":"Rome","adm0name":"Italy","latitude":41.8959556265,"longitude":12.4832584215,"pop_max":3339000,"megacity":1,"worldcity":1,"adm0cap":1},"bbox":[12.481313,41.897901,12.481313,41.897901]},{"type":"Feature","properties":{"name":"Beijing","adm0name":"China","latitude":39.9288922313,"longitude":116.388285684,"pop_max":11106000,"megacity":1,"worldcity":1,"adm0cap":1},"bbox":[116.38634,39.930838,116.38634,39.930838]},{"type":"Feature","properties":{"name":"Nairobi","adm0name":"Kenya","latitude":-1.28334674185,"longitude":36.8166568591,"pop_max":3010000,"megacity":1,"worldcity":1,"adm0cap":1},"bbox":[36.814711,-1.281401,36.814711,-1.281401]},{"type":"Feature","properties":{"name":"Jakarta","adm0name":"Indonesia","latitude":-6.17441770541,"longitude":106.829437621,"pop_max":9125000,"megacity":1,"worldcity":1,"adm0cap":1},"bbox":[106.827492,-6.172472,106.827492,-6.172472]},{"type":"Feature","properties":{"name":"Bogota","adm0name":"Colombia","latitude":4.59642356253,"longitude":-74.0833439552,"pop_max":7772000,"megacity":1,"worldcity":1,"adm0cap":1},"bbox":[-74.08529,4.598369,-74.08529,4.598369]},{"type":"Feature","properties":{"name":"Cairo","adm0name":"Egypt","latitude":30.0499603465,"longitude":31.2499682197,"pop_max":11893000,"megacity":1,"worldcity":1,"adm0cap":1},"bbox":[31.248022,30.051906,31.248022,30.051906]},{"type":"Feature","properties":{"name":"Shanghai","adm0name":"China","latitude":31.2164524526,"longitude":121.436504678,"pop_max":14987000,"megacity":1,"worldcity":1,"adm0cap":0},"bbox":[121.434559,31.218398,121.434559,31.218398]},{"type":"Feature","properties":{"name":"Tokyo","adm0name":"Japan","latitude":35.6850169058,"longitude":139.751407429,"pop_max":35676000,"megacity":1,"worldcity":1,"adm0cap":1},"bbox":[139.749462,35.686963,139.749462,35.686963]},{"type":"Feature","properties":{"name":"Mumbai","adm0name":"India","latitude":19.0169903757,"longitude":72.8569892974,"pop_max":18978000,"megacity":1,"worldcity":1,"adm0cap":0},"bbox":[72.855043,19.018936,72.855043,19.018936]},{"type":"Feature","properties":{"name":"Paris","adm0name":"France","latitude":48.8666929312,"longitude":2.33333532574,"pop_max":9904000,"megacity":1,"worldcity":1,"adm0cap":1},"bbox":[2.331389,48.868639,2.331389,48.868639]},{"type":"Feature","properties":{"name":"Santiago","adm0name":"Chile","latitude":-33.4500138155,"longitude":-70.6670408546,"pop_max":5720000,"megacity":1,"worldcity":1,"adm0cap":1},"bbox":[-70.668987,-33.448068,-70.668987,-33.448068]},{"type":"Feature","properties":{"name":"Kolkata","adm0name":"India","latitude":22.4949692983,"longitude":88.3246756581,"pop_max":14787000,"megacity":1,"worldcity":0,"adm0cap":0},"bbox":[88.32273,22.496915,88.32273,22.496915]},{"type":"Feature","properties":{"name":"Rio de Janeiro","adm0name":"Brazil","latitude":-22.9250231742,"longitude":-43.2250207942,"pop_max":11748000,"megacity":1,"worldcity":1,"adm0cap":0},"bbox":[-43.226967,-22.923077,-43.226967,-22.923077]},{"type":"Feature","properties":{"name":"S\u00e3o Paulo","adm0name":"Brazil","latitude":-23.558679587,"longitude":-46.6250199804,"pop_max":18845000,"megacity":1,"worldcity":1,"adm0cap":0},"bbox":[-46.626966,-23.556734,-46.626966,-23.556734]},{"type":"Feature","properties":{"name":"Sydney","adm0name":"Australia","latitude":-33.9200109672,"longitude":151.185179809,"pop_max":4630000,"megacity":1,"worldcity":1,"adm0cap":0},"bbox":[151.183234,-33.918065,151.183234,-33.918065]},{"type":"Feature","properties":{"name":"Singapore","adm0name":"Singapore","latitude":1.29303346649,"longitude":103.855820678,"pop_max":5183700,"megacity":1,"worldcity":1,"adm0cap":1},"bbox":[103.853875,1.294979,103.853875,1.294979]},{"type":"Feature","properties":{"name":"Hong Kong","adm0name":"Hong Kong S.A.R.","latitude":22.304980895,"longitude":114.185009317,"pop_max":7206000,"megacity":1,"worldcity":1,"adm0cap":0},"bbox":[114.183063,22.306927,114.183063,22.306927]}],"bbox":[-175.220564477617,-41.2999878536917,179.216647094029,64.1500236197392]}